{"type": "FeatureCollection", "features": [ {"type": "Feature", "properties": {"norad_id": 37966, "name": "COSMOS 2251 DEB", "group": "cosmos-2251-debris", "lat": 5.75499523539639, "lon": 49.57796027759797, "alt_km": 528.1982623438089, "timestamp": "2025-12-12T09:49:09.129977+00:00", "meta": {"OBJECT_NAME": "COSMOS 2251 DEB", "OBJECT_ID": "1993-036BPR", "EPOCH": "2025-12-09T09:36:29.677536", "MEAN_MOTION": 15.12084932, "ECCENTRICITY": 0.0008975, "INCLINATION": 73.977, "RA_OF_ASC_NODE": 237.4896, "ARG_OF_PERICENTER": 112.4769, "MEAN_ANOMALY": 247.7375, "EPHEMERIS_TYPE": 0, "CLASSIFICATION_TYPE": "U", "NORAD_CAT_ID": 37966, "ELEMENT_SET_NO": 999, "REV_AT_EPOCH": 85292, "BSTAR": 0.003976161, "MEAN_MOTION_DOT": 0.00069139, "MEAN_MOTION_DDOT": 0}, "tle": {"line1": "1 37966U 93036BPR 25343.40034349  .00069139  00000+0  39762-2 0  9992", "line2": "2 37966  73.9770 237.4896 0008975 112.4769 247.7375 15.12084932852920"}}, "geometry": {"type": "Point", "coordinates": [49.57796027759797, 5.75499523539639]}}, {"type": "Feature", "properties": {"norad_id": 37967, "name": "COSMOS 2251 DEB", "group": "cosmos-2251-debris", "lat": -66.2518532321109, "lon": 97.3411341674271, "alt_km": 657.9820507482682, "timestamp": "2025-12-12T09:49:09.129988+00:00", "meta": {"OBJECT_NAME": "COSMOS 2251 DEB", "OBJECT_ID": "1993-036BPS", "EPOCH": "2025-12-10T16:28:42.146688", "MEAN_MOTION": 14.4047963, "ECCENTRICITY": 0.01508864, "INCLINATION": 74.015, "RA_OF_ASC_NODE": 141.1866, "ARG_OF_PERICENTER": 280.4085, "MEAN_ANOMALY": 78.0095, "EPHEMERIS_TYPE": 0, "CLASSIFICATION_TYPE": "U", "NORAD_CAT_ID": 37967, "ELEMENT_SET_NO": 999, "REV_AT_EPOCH": 64706, "BSTAR": 0.0023977147, "MEAN_MOTION_DOT": 8.707e-05, "MEAN_MOTION_DDOT": 0}, "tle": {"line1": "1 37967U 93036BPS 25344.68659892  .00008707  00000+0  23977-2 0  9995", "line2": "2 37967  74.0150 141.1866 0150886 280.4085  78.0095 14.40479630647063"}}, "geometry": {"type": "Point", "coordinates": [97.3411341674271, -66.2518532321109]}}, {"type": "Feature", "properties": {"norad_id": 37968, "name": "COSMOS 2251 DEB", "group": "cosmos-2251-debris", "lat": 6.676464856512605, "lon": -86.24266201820673, "alt_km": 514.4532523066509, "timestamp": "2025-12-12T09:49:09.129998+00:00", "meta": {"OBJECT_NAME": "COSMOS 2251 DEB", "OBJECT_ID": "1993-036BPT", "EPOCH": "2025-12-11T12:59:17.316096", "MEAN_MOTION": 15.00564949, "ECCENTRICITY": 0.0080487, "INCLINATION": 74.0004, "RA_OF_ASC_NODE": 273.6014, "ARG_OF_PERICENTER": 29.6293, "MEAN_ANOMALY": 330.9417, "EPHEMERIS_TYPE": 0, "CLASSIFICATION_TYPE": "U", "NORAD_CAT_ID": 37968, "ELEMENT_SET_NO": 999, "REV_AT_EPOCH": 60201, "BSTAR": 0.0015221, "MEAN_MOTION_DOT": 0.00020602, "MEAN_MOTION_DDOT": 0}, "tle": {"line1": "1 37968U 93036BPT 25345.54117264  .00020602  00000+0  15221-2 0  9995", "line2": "2 37968  74.0004 273.6014 0080487  29.6293 330.9417 15.00564949602010"}}, "geometry": {"type": "Point", "coordinates": [-86.24266201820673, 6.676464856512605]}}, {"type": "Feature", "properties": {"norad_id": 37971, "name": "COSMOS 2251 DEB", "group": "cosmos-2251-debris", "lat": -12.397231384833084, "lon": 38.744385669417284, "alt_km": 780.5916499281111, "timestamp": "2025-12-12T09:49:09.130009+00:00", "meta": {"OBJECT_NAME": "COSMOS 2251 DEB", "OBJECT_ID": "1993-036BPW", "EPOCH": "2025-12-11T10:40:32.065248", "MEAN_MOTION": 14.48615122, "ECCENTRICITY": 0.00674117, "INCLINATION": 73.9935, "RA_OF_ASC_NODE": 44.173, "ARG_OF_PERICENTER": 183.4136, "MEAN_ANOMALY": 176.6574, "EPHEMERIS_TYPE": 0, "CLASSIFICATION_TYPE": "U", "NORAD_CAT_ID": 37971, "ELEMENT_SET_NO": 999, "REV_AT_EPOCH": 60659, "BSTAR": 0.0043286348, "MEAN_MOTION_DOT": 0.00016772, "MEAN_MOTION_DDOT": 0}, "tle": {"line1": "1 37971U 93036BPW 25345.44481557  .00016772  00000+0  43286-2 0  9992", "line2": "2 37971  73.9935  44.1730 0067411 183.4136 176.6574 14.48615122606595"}}, "geometry": {"type": "Point", "coordinates": [38.744385669417284, -12.397231384833084]}}, {"type": "Feature", "properties": {"norad_id": 37975, "name": "COSMOS 2251 DEB", "group": "cosmos-2251-debris", "lat": -20.29165811526787, "lon": 150.80723994083561, "alt_km": 672.627719505509, "timestamp": "2025-12-12T09:49:09.130019+00:00", "meta": {"OBJECT_NAME": "COSMOS 2251 DEB", "OBJECT_ID": "1993-036BQA", "EPOCH": "2025-12-11T15:00:34.783776", "MEAN_MOTION": 14.75964152, "ECCENTRICITY": 0.0096009, "INCLINATION": 74.0032, "RA_OF_ASC_NODE": 326.255, "ARG_OF_PERICENTER": 315.8702, "MEAN_ANOMALY": 43.4838, "EPHEMERIS_TYPE": 0, "CLASSIFICATION_TYPE": "U", "NORAD_CAT_ID": 37975, "ELEMENT_SET_NO": 999, "REV_AT_EPOCH": 69729, "BSTAR": 0.0059326203, "MEAN_MOTION_DOT": 0.00044255, "MEAN_MOTION_DDOT": 0}, "tle": {"line1": "1 37975U 93036BQA 25345.62540259  .00044255  00000+0  59326-2 0  9990", "line2": "2 37975  74.0032 326.2550 0096009 315.8702  43.4838 14.75964152697299"}}, "geometry": {"type": "Point", "coordinates": [150.80723994083561, -20.29165811526787]}}, {"type": "Feature", "properties": {"norad_id": 37978, "name": "COSMOS 2251 DEB", "group": "cosmos-2251-debris", "lat": -49.58568556330383, "lon": -70.54601433010794, "alt_km": 318.85424729563965, "timestamp": "2025-12-12T09:49:09.130029+00:00", "meta": {"OBJECT_NAME": "COSMOS 2251 DEB", "OBJECT_ID": "1993-036BQD", "EPOCH": "2025-11-19T05:08:53.100672", "MEAN_MOTION": 15.61137081, "ECCENTRICITY": 0.00148985, "INCLINATION": 74.0238, "RA_OF_ASC_NODE": 142.2198, "ARG_OF_PERICENTER": 140.9849, "MEAN_ANOMALY": 219.2448, "EPHEMERIS_TYPE": 0, "CLASSIFICATION_TYPE": "U", "NORAD_CAT_ID": 37978, "ELEMENT_SET_NO": 999, "REV_AT_EPOCH": 8032, "BSTAR": 0.0043958825, "MEAN_MOTION_DOT": 0.0039117, "MEAN_MOTION_DDOT": 0}, "tle": {"line1": "1 37978U 93036BQD 25323.21450348  .00391170  00000+0  43959-2 0  9999", "line2": "2 37978  74.0238 142.2198 0014898 140.9849 219.2448 15.61137081 80328"}}, "geometry": {"type": "Point", "coordinates": [-70.54601433010794, -49.58568556330383]}}, {"type": "Feature", "properties": {"norad_id": 37985, "name": "COSMOS 2251 DEB", "group": "cosmos-2251-debris", "lat": -40.85498989398886, "lon": -107.99945523581223, "alt_km": 775.0652114133609, "timestamp": "2025-12-12T09:49:09.130039+00:00", "meta": {"OBJECT_NAME": "COSMOS 2251 DEB", "OBJECT_ID": "1993-036BQL", "EPOCH": "2025-12-10T12:51:29.994048", "MEAN_MOTION": 14.35481838, "ECCENTRICITY": 0.0020726, "INCLINATION": 74.0254, "RA_OF_ASC_NODE": 269.7813, "ARG_OF_PERICENTER": 33.1877, "MEAN_ANOMALY": 327.0571, "EPHEMERIS_TYPE": 0, "CLASSIFICATION_TYPE": "U", "NORAD_CAT_ID": 37985, "ELEMENT_SET_NO": 999, "REV_AT_EPOCH": 64885, "BSTAR": 9.1575e-05, "MEAN_MOTION_DOT": 2.38e-06, "MEAN_MOTION_DDOT": 0}, "tle": {"line1": "1 37985U 93036BQL 25344.53576382  .00000238  00000+0  91575-4 0  9993", "line2": "2 37985  74.0254 269.7813 0020726  33.1877 327.0571 14.35481838648859"}}, "geometry": {"type": "Point", "coordinates": [-107.99945523581223, -40.85498989398886]}}, {"type": "Feature", "properties": {"norad_id": 37988, "name": "COSMOS 2251 DEB", "group": "cosmos-2251-debris", "lat": -71.89262407285938, "lon": -36.24180252745169, "alt_km": 707.3884253736951, "timestamp": "2025-12-12T09:49:09.130050+00:00", "meta": {"OBJECT_NAME": "COSMOS 2251 DEB", "OBJECT_ID": "1993-036BQP", "EPOCH": "2025-12-11T12:56:23.685792", "MEAN_MOTION": 14.6884503, "ECCENTRICITY": 0.0063225, "INCLINATION": 74.0638, "RA_OF_ASC_NODE": 26.3433, "ARG_OF_PERICENTER": 64.1894, "MEAN_ANOMALY": 296.578, "EPHEMERIS_TYPE": 0, "CLASSIFICATION_TYPE": "U", "NORAD_CAT_ID": 37988, "ELEMENT_SET_NO": 999, "REV_AT_EPOCH": 23378, "BSTAR": 0.0012641072, "MEAN_MOTION_DOT": 7.59e-05, "MEAN_MOTION_DDOT": 0}, "tle": {"line1": "1 37988U 93036BQP 25345.53916303  .00007590  00000+0  12641-2 0  9991", "line2": "2 37988  74.0638  26.3433 0063225  64.1894 296.5780 14.68845030233785"}}, "geometry": {"type": "Point", "coordinates": [-36.24180252745169, -71.89262407285938]}}, {"type": "Feature", "properties": {"norad_id": 37993, "name": "COSMOS 2251 DEB", "group": "cosmos-2251-debris", "lat": 62.49649609474032, "lon": -159.0631876776719, "alt_km": 702.4916003595408, "timestamp": "2025-12-12T09:49:09.130060+00:00", "meta": {"OBJECT_NAME": "COSMOS 2251 DEB", "OBJECT_ID": "1993-036BQU", "EPOCH": "2025-12-09T05:51:24.736320", "MEAN_MOTION": 14.59845478, "ECCENTRICITY": 0.0022054, "INCLINATION": 74.0217, "RA_OF_ASC_NODE": 173.5884, "ARG_OF_PERICENTER": 262.4751, "MEAN_ANOMALY": 97.3909, "EPHEMERIS_TYPE": 0, "CLASSIFICATION_TYPE": "U", "NORAD_CAT_ID": 37993, "ELEMENT_SET_NO": 999, "REV_AT_EPOCH": 65266, "BSTAR": 0.0017274, "MEAN_MOTION_DOT": 8.27e-05, "MEAN_MOTION_DDOT": 0}, "tle": {"line1": "1 37993U 93036BQU 25343.24403630  .00008270  00000+0  17274-2 0  9990", "line2": "2 37993  74.0217 173.5884 0022054 262.4751  97.3909 14.59845478652667"}}, "geometry": {"type": "Point", "coordinates": [-159.0631876776719, 62.49649609474032]}}, {"type": "Feature", "properties": {"norad_id": 37994, "name": "COSMOS 2251 DEB", "group": "cosmos-2251-debris", "lat": 0.8987583558120374, "lon": 96.04177259104566, "alt_km": 778.5641019985633, "timestamp": "2025-12-12T09:49:09.130070+00:00", "meta": {"OBJECT_NAME": "COSMOS 2251 DEB", "OBJECT_ID": "1993-036BQV", "EPOCH": "2025-12-12T03:59:14.039808", "MEAN_MOTION": 14.3962136, "ECCENTRICITY": 0.0022895, "INCLINATION": 74.0362, "RA_OF_ASC_NODE": 276.7476, "ARG_OF_PERICENTER": 356.2945, "MEAN_ANOMALY": 3.8036, "EPHEMERIS_TYPE": 0, "CLASSIFICATION_TYPE": "U", "NORAD_CAT_ID": 37994, "ELEMENT_SET_NO": 999, "REV_AT_EPOCH": 77056, "BSTAR": 0.00057549, "MEAN_MOTION_DOT": 1.778e-05, "MEAN_MOTION_DDOT": 0}, "tle": {"line1": "1 37994U 93036BQV 25346.16613472  .00001778  00000+0  57549-3 0  9998", "line2": "2 37994  74.0362 276.7476 0022895 356.2945   3.8036 14.39621360770565"}}, "geometry": {"type": "Point", "coordinates": [96.04177259104566, 0.8987583558120374]}}]}